{"type": "FeatureCollection", "features": [ {"type": "Feature", "properties": {"norad_id": 66618, "name": "STARLINK-35970", "group": "last-30-days", "lat": 8.772283021436856, "lon": -6.333413447246906, "alt_km": 418.2988242448291, "timestamp": "2025-12-14T03:55:51.548414+00:00", "meta": {"OBJECT_NAME": "STARLINK-35970", "OBJECT_ID": "2025-271B", "EPOCH": "2025-12-13T06:00:02.000160", "MEAN_MOTION": 15.4925321, "ECCENTRICITY": 5.218e-05, "INCLINATION": 53.16, "RA_OF_ASC_NODE": 184.6805, "ARG_OF_PERICENTER": 67.433, "MEAN_ANOMALY": 42.0093, "EPHEMERIS_TYPE": 0, "CLASSIFICATION_TYPE": "U", "NORAD_CAT_ID": 66618, "ELEMENT_SET_NO": 999, "REV_AT_EPOCH": 432, "BSTAR": 0.0011892993, "MEAN_MOTION_DOT": 0.00066127, "MEAN_MOTION_DDOT": 0}, "tle": {"line1": "1 66618U 25271B   25347.25002315  .00066127  00000+0  11893-2 0  9998", "line2": "2 66618  53.1600 184.6805 0000521  67.4330  42.0093 15.49253210  4326"}}, "geometry": {"type": "Point", "coordinates": [-6.333413447246906, 8.772283021436856]}}, {"type": "Feature", "properties": {"norad_id": 66619, "name": "STARLINK-35951", "group": "last-30-days", "lat": 41.96745185430922, "lon": -41.993343209054885, "alt_km": 412.56949239940786, "timestamp": "2025-12-14T03:55:51.548425+00:00", "meta": {"OBJECT_NAME": "STARLINK-35951", "OBJECT_ID": "2025-271C", "EPOCH": "2025-12-13T06:00:02.000160", "MEAN_MOTION": 15.49256224, "ECCENTRICITY": 7.785e-05, "INCLINATION": 53.1598, "RA_OF_ASC_NODE": 184.7758, "ARG_OF_PERICENTER": 153.7545, "MEAN_ANOMALY": 270.0269, "EPHEMERIS_TYPE": 0, "CLASSIFICATION_TYPE": "U", "NORAD_CAT_ID": 66619, "ELEMENT_SET_NO": 999, "REV_AT_EPOCH": 432, "BSTAR": 0.0011850778, "MEAN_MOTION_DOT": 0.00065896, "MEAN_MOTION_DDOT": 0}, "tle": {"line1": "1 66619U 25271C   25347.25002315  .00065896  00000+0  11851-2 0  9995", "line2": "2 66619  53.1598 184.7758 0000778 153.7545 270.0269 15.49256224  4328"}}, "geometry": {"type": "Point", "coordinates": [-41.993343209054885, 41.96745185430922]}}, {"type": "Feature", "properties": {"norad_id": 66620, "name": "STARLINK-35936", "group": "last-30-days", "lat": 45.29778428584578, "lon": -48.829594169748994, "alt_km": 413.0915964961705, "timestamp": "2025-12-14T03:55:51.548437+00:00", "meta": {"OBJECT_NAME": "STARLINK-35936", "OBJECT_ID": "2025-271D", "EPOCH": "2025-12-13T06:00:02.000160", "MEAN_MOTION": 15.49397948, "ECCENTRICITY": 5.758e-05, "INCLINATION": 53.1599, "RA_OF_ASC_NODE": 184.7896, "ARG_OF_PERICENTER": 74.6861, "MEAN_ANOMALY": 343.3983, "EPHEMERIS_TYPE": 0, "CLASSIFICATION_TYPE": "U", "NORAD_CAT_ID": 66620, "ELEMENT_SET_NO": 999, "REV_AT_EPOCH": 432, "BSTAR": -0.0032360529, "MEAN_MOTION_DOT": -0.00176956, "MEAN_MOTION_DDOT": 0}, "tle": {"line1": "1 66620U 25271D   25347.25002315 -.00176956  00000+0 -32361-2 0  9998", "line2": "2 66620  53.1599 184.7896 0000575  74.6861 343.3983 15.49397948  4327"}}, "geometry": {"type": "Point", "coordinates": [-48.829594169748994, 45.29778428584578]}}, {"type": "Feature", "properties": {"norad_id": 66621, "name": "STARLINK-35847", "group": "last-30-days", "lat": 5.96295381876513, "lon": -4.189110959266361, "alt_km": 418.8157271322052, "timestamp": "2025-12-14T03:55:51.548447+00:00", "meta": {"OBJECT_NAME": "STARLINK-35847", "OBJECT_ID": "2025-271E", "EPOCH": "2025-12-13T06:00:02.000160", "MEAN_MOTION": 15.49251226, "ECCENTRICITY": 5.54e-05, "INCLINATION": 53.1601, "RA_OF_ASC_NODE": 184.6726, "ARG_OF_PERICENTER": 55.3579, "MEAN_ANOMALY": 57.6211, "EPHEMERIS_TYPE": 0, "CLASSIFICATION_TYPE": "U", "NORAD_CAT_ID": 66621, "ELEMENT_SET_NO": 999, "REV_AT_EPOCH": 432, "BSTAR": 0.0011684043, "MEAN_MOTION_DOT": 0.00064943, "MEAN_MOTION_DDOT": 0}, "tle": {"line1": "1 66621U 25271E   25347.25002315  .00064943  00000+0  11684-2 0  9994", "line2": "2 66621  53.1601 184.6726 0000554  55.3579  57.6211 15.49251226  4329"}}, "geometry": {"type": "Point", "coordinates": [-4.189110959266361, 5.96295381876513]}}, {"type": "Feature", "properties": {"norad_id": 66622, "name": "STARLINK-35950", "group": "last-30-days", "lat": 40.91914993669177, "lon": -40.12842221074502, "alt_km": 413.61403108223476, "timestamp": "2025-12-14T03:55:51.548457+00:00", "meta": {"OBJECT_NAME": "STARLINK-35950", "OBJECT_ID": "2025-271F", "EPOCH": "2025-12-13T06:00:02.000160", "MEAN_MOTION": 15.49387136, "ECCENTRICITY": 5.425e-05, "INCLINATION": 53.1597, "RA_OF_ASC_NODE": 184.7737, "ARG_OF_PERICENTER": 91.1905, "MEAN_ANOMALY": 334.5481, "EPHEMERIS_TYPE": 0, "CLASSIFICATION_TYPE": "U", "NORAD_CAT_ID": 66622, "ELEMENT_SET_NO": 999, "REV_AT_EPOCH": 432, "BSTAR": -0.002702068, "MEAN_MOTION_DOT": -0.00148311, "MEAN_MOTION_DDOT": 0}, "tle": {"line1": "1 66622U 25271F   25347.25002315 -.00148311  00000+0 -27021-2 0  9991", "line2": "2 66622  53.1597 184.7737 0000542  91.1905 334.5481 15.49387136  4321"}}, "geometry": {"type": "Point", "coordinates": [-40.12842221074502, 40.91914993669177]}}, {"type": "Feature", "properties": {"norad_id": 66623, "name": "STARLINK-35920", "group": "last-30-days", "lat": 38.52208109968146, "lon": -36.24870333450148, "alt_km": 413.66539348981314, "timestamp": "2025-12-14T03:55:51.548467+00:00", "meta": {"OBJECT_NAME": "STARLINK-35920", "OBJECT_ID": "2025-271G", "EPOCH": "2025-12-13T06:00:02.000160", "MEAN_MOTION": 15.49365368, "ECCENTRICITY": 0.00011276, "INCLINATION": 53.1599, "RA_OF_ASC_NODE": 184.7643, "ARG_OF_PERICENTER": 95.018, "MEAN_ANOMALY": 334.5909, "EPHEMERIS_TYPE": 0, "CLASSIFICATION_TYPE": "U", "NORAD_CAT_ID": 66623, "ELEMENT_SET_NO": 999, "REV_AT_EPOCH": 432, "BSTAR": -0.0025524088, "MEAN_MOTION_DOT": -0.00140165, "MEAN_MOTION_DDOT": 0}, "tle": {"line1": "1 66623U 25271G   25347.25002315 -.00140165  00000+0 -25524-2 0  9997", "line2": "2 66623  53.1599 184.7643 0001127  95.0180 334.5909 15.49365368  4326"}}, "geometry": {"type": "Point", "coordinates": [-36.24870333450148, 38.52208109968146]}}, {"type": "Feature", "properties": {"norad_id": 66624, "name": "STARLINK-35927", "group": "last-30-days", "lat": 39.73542868531704, "lon": -38.152787892880276, "alt_km": 413.87992667305025, "timestamp": "2025-12-14T03:55:51.548477+00:00", "meta": {"OBJECT_NAME": "STARLINK-35927", "OBJECT_ID": "2025-271H", "EPOCH": "2025-12-13T06:00:02.000160", "MEAN_MOTION": 15.49386804, "ECCENTRICITY": 4.784e-05, "INCLINATION": 53.1597, "RA_OF_ASC_NODE": 184.7689, "ARG_OF_PERICENTER": 81.1677, "MEAN_ANOMALY": 346.4879, "EPHEMERIS_TYPE": 0, "CLASSIFICATION_TYPE": "U", "NORAD_CAT_ID": 66624, "ELEMENT_SET_NO": 999, "REV_AT_EPOCH": 432, "BSTAR": -0.0027062567, "MEAN_MOTION_DOT": -0.00148533, "MEAN_MOTION_DDOT": 0}, "tle": {"line1": "1 66624U 25271H   25347.25002315 -.00148533  00000+0 -27063-2 0  9995", "line2": "2 66624  53.1597 184.7689 0000478  81.1677 346.4879 15.49386804  4326"}}, "geometry": {"type": "Point", "coordinates": [-38.152787892880276, 39.73542868531704]}}, {"type": "Feature", "properties": {"norad_id": 66625, "name": "STARLINK-35929", "group": "last-30-days", "lat": 37.28047611915798, "lon": -34.41139733336636, "alt_km": 413.949489885169, "timestamp": "2025-12-14T03:55:51.548487+00:00", "meta": {"OBJECT_NAME": "STARLINK-35929", "OBJECT_ID": "2025-271J", "EPOCH": "2025-12-13T06:00:02.000160", "MEAN_MOTION": 15.49369486, "ECCENTRICITY": 0.00010188, "INCLINATION": 53.1599, "RA_OF_ASC_NODE": 184.7598, "ARG_OF_PERICENTER": 97.2222, "MEAN_ANOMALY": 334.3043, "EPHEMERIS_TYPE": 0, "CLASSIFICATION_TYPE": "U", "NORAD_CAT_ID": 66625, "ELEMENT_SET_NO": 999, "REV_AT_EPOCH": 432, "BSTAR": -0.0026818433, "MEAN_MOTION_DOT": -0.0014714, "MEAN_MOTION_DDOT": 0}, "tle": {"line1": "1 66625U 25271J   25347.25002315 -.00147140  00000+0 -26818-2 0  9996", "line2": "2 66625  53.1599 184.7598 0001018  97.2222 334.3043 15.49369486  4329"}}, "geometry": {"type": "Point", "coordinates": [-34.41139733336636, 37.28047611915798]}}, {"type": "Feature", "properties": {"norad_id": 66626, "name": "STARLINK-35902", "group": "last-30-days", "lat": 35.98643821478204, "lon": -32.59977203259604, "alt_km": 414.4241600010373, "timestamp": "2025-12-14T03:55:51.548510+00:00", "meta": {"OBJECT_NAME": "STARLINK-35902", "OBJECT_ID": "2025-271K", "EPOCH": "2025-12-13T06:00:02.000160", "MEAN_MOTION": 15.49381909, "ECCENTRICITY": 4.726e-05, "INCLINATION": 53.1599, "RA_OF_ASC_NODE": 184.7563, "ARG_OF_PERICENTER": 87.0036, "MEAN_ANOMALY": 346.3979, "EPHEMERIS_TYPE": 0, "CLASSIFICATION_TYPE": "U", "NORAD_CAT_ID": 66626, "ELEMENT_SET_NO": 999, "REV_AT_EPOCH": 432, "BSTAR": -0.0024875257, "MEAN_MOTION_DOT": -0.00136745, "MEAN_MOTION_DDOT": 0}, "tle": {"line1": "1 66626U 25271K   25347.25002315 -.00136745  00000+0 -24875-2 0  9997", "line2": "2 66626  53.1599 184.7563 0000472  87.0036 346.3979 15.49381909  4320"}}, "geometry": {"type": "Point", "coordinates": [-32.59977203259604, 35.98643821478204]}}, {"type": "Feature", "properties": {"norad_id": 66627, "name": "STARLINK-35904", "group": "last-30-days", "lat": 34.719993579946774, "lon": -30.9176097005153, "alt_km": 414.74932616649676, "timestamp": "2025-12-14T03:55:51.548525+00:00", "meta": {"OBJECT_NAME": "STARLINK-35904", "OBJECT_ID": "2025-271L", "EPOCH": "2025-12-13T06:00:02.000160", "MEAN_MOTION": 15.49399921, "ECCENTRICITY": 4.986e-05, "INCLINATION": 53.1598, "RA_OF_ASC_NODE": 184.7525, "ARG_OF_PERICENTER": 94.0744, "MEAN_ANOMALY": 341.2545, "EPHEMERIS_TYPE": 0, "CLASSIFICATION_TYPE": "U", "NORAD_CAT_ID": 66627, "ELEMENT_SET_NO": 999, "REV_AT_EPOCH": 416, "BSTAR": -0.0032030425, "MEAN_MOTION_DOT": -0.00175205, "MEAN_MOTION_DDOT": 0}, "tle": {"line1": "1 66627U 25271L   25347.25002315 -.00175205  00000+0 -32030-2 0  9994", "line2": "2 66627  53.1598 184.7525 0000498  94.0744 341.2545 15.49399921  4168"}}, "geometry": {"type": "Point", "coordinates": [-30.9176097005153, 34.719993579946774]}}]}